{"type": "FeatureCollection", "features": [ {"type": "Feature", "properties": {"norad_id": 66946, "name": "STARLINK-36115", "group": "last-30-days", "lat": 52.988188492076596, "lon": 122.99664748471115, "alt_km": 304.6272413345496, "timestamp": "2025-12-17T09:00:15.892829+00:00", "meta": {"OBJECT_NAME": "STARLINK-36115", "OBJECT_ID": "2025-286X", "EPOCH": "2025-12-16T22:00:03.000096", "MEAN_MOTION": 15.87857321, "ECCENTRICITY": 5.785e-05, "INCLINATION": 53.1561, "RA_OF_ASC_NODE": 29.3874, "ARG_OF_PERICENTER": 86.8299, "MEAN_ANOMALY": 265.5613, "EPHEMERIS_TYPE": 0, "CLASSIFICATION_TYPE": "U", "NORAD_CAT_ID": 66946, "ELEMENT_SET_NO": 999, "REV_AT_EPOCH": 266, "BSTAR": -0.0058359833, "MEAN_MOTION_DOT": -0.014053, "MEAN_MOTION_DDOT": 0}, "tle": {"line1": "1 66946U 25286X   25350.91670139 -.01405300  00000+0 -58360-2 0  9993", "line2": "2 66946  53.1561  29.3874 0000578  86.8299 265.5613 15.87857321  2668"}}, "geometry": {"type": "Point", "coordinates": [122.99664748471115, 52.988188492076596]}}, {"type": "Feature", "properties": {"norad_id": 66947, "name": "STARLINK-36089", "group": "last-30-days", "lat": 52.38316927095637, "lon": 130.3774318398245, "alt_km": 304.5912658951074, "timestamp": "2025-12-17T09:00:15.892843+00:00", "meta": {"OBJECT_NAME": "STARLINK-36089", "OBJECT_ID": "2025-286Y", "EPOCH": "2025-12-16T22:00:03.000096", "MEAN_MOTION": 15.87911069, "ECCENTRICITY": 6.193e-05, "INCLINATION": 53.1561, "RA_OF_ASC_NODE": 29.3782, "ARG_OF_PERICENTER": 87.3959, "MEAN_ANOMALY": 269.4367, "EPHEMERIS_TYPE": 0, "CLASSIFICATION_TYPE": "U", "NORAD_CAT_ID": 66947, "ELEMENT_SET_NO": 999, "REV_AT_EPOCH": 266, "BSTAR": -0.0059200817, "MEAN_MOTION_DOT": -0.01426249, "MEAN_MOTION_DDOT": 0}, "tle": {"line1": "1 66947U 25286Y   25350.91670139 -.01426249  00000+0 -59201-2 0  9994", "line2": "2 66947  53.1561  29.3782 0000619  87.3959 269.4367 15.87911069  2661"}}, "geometry": {"type": "Point", "coordinates": [130.3774318398245, 52.38316927095637]}}, {"type": "Feature", "properties": {"norad_id": 66948, "name": "STARLINK-36116", "group": "last-30-days", "lat": 52.70674530760896, "lon": 127.14758976063781, "alt_km": 304.6316522268453, "timestamp": "2025-12-17T09:00:15.892853+00:00", "meta": {"OBJECT_NAME": "STARLINK-36116", "OBJECT_ID": "2025-286Z", "EPOCH": "2025-12-16T22:00:03.000096", "MEAN_MOTION": 15.87878157, "ECCENTRICITY": 5.981e-05, "INCLINATION": 53.1562, "RA_OF_ASC_NODE": 29.3823, "ARG_OF_PERICENTER": 92.8441, "MEAN_ANOMALY": 262.0454, "EPHEMERIS_TYPE": 0, "CLASSIFICATION_TYPE": "U", "NORAD_CAT_ID": 66948, "ELEMENT_SET_NO": 999, "REV_AT_EPOCH": 266, "BSTAR": -0.0058846273, "MEAN_MOTION_DOT": -0.01416779, "MEAN_MOTION_DDOT": 0}, "tle": {"line1": "1 66948U 25286Z   25350.91670139 -.01416779  00000+0 -58846-2 0  9996", "line2": "2 66948  53.1562  29.3823 0000598  92.8441 262.0454 15.87878157  2668"}}, "geometry": {"type": "Point", "coordinates": [127.14758976063781, 52.70674530760896]}}, {"type": "Feature", "properties": {"norad_id": 66949, "name": "STARLINK-36096", "group": "last-30-days", "lat": 51.96346873997573, "lon": 133.61837353188284, "alt_km": 304.61103166083467, "timestamp": "2025-12-17T09:00:15.892863+00:00", "meta": {"OBJECT_NAME": "STARLINK-36096", "OBJECT_ID": "2025-286AA", "EPOCH": "2025-12-16T22:00:03.000096", "MEAN_MOTION": 15.8792747, "ECCENTRICITY": 5.601e-05, "INCLINATION": 53.156, "RA_OF_ASC_NODE": 29.3742, "ARG_OF_PERICENTER": 84.527, "MEAN_ANOMALY": 274.2978, "EPHEMERIS_TYPE": 0, "CLASSIFICATION_TYPE": "U", "NORAD_CAT_ID": 66949, "ELEMENT_SET_NO": 999, "REV_AT_EPOCH": 266, "BSTAR": -0.0058632825, "MEAN_MOTION_DOT": -0.01415335, "MEAN_MOTION_DDOT": 0}, "tle": {"line1": "1 66949U 25286AA  25350.91670139 -.01415335  00000+0 -58633-2 0  9998", "line2": "2 66949  53.1560  29.3742 0000560  84.5270 274.2978 15.87927470  2663"}}, "geometry": {"type": "Point", "coordinates": [133.61837353188284, 51.96346873997573]}}, {"type": "Feature", "properties": {"norad_id": 66950, "name": "STARLINK-36111", "group": "last-30-days", "lat": 50.813601042251165, "lon": 140.14172455865327, "alt_km": 304.6656817044286, "timestamp": "2025-12-17T09:00:15.892873+00:00", "meta": {"OBJECT_NAME": "STARLINK-36111", "OBJECT_ID": "2025-286AB", "EPOCH": "2025-12-16T22:00:03.000096", "MEAN_MOTION": 15.87990847, "ECCENTRICITY": 5.584e-05, "INCLINATION": 53.1561, "RA_OF_ASC_NODE": 29.3656, "ARG_OF_PERICENTER": 88.4249, "MEAN_ANOMALY": 274.5449, "EPHEMERIS_TYPE": 0, "CLASSIFICATION_TYPE": "U", "NORAD_CAT_ID": 66950, "ELEMENT_SET_NO": 999, "REV_AT_EPOCH": 266, "BSTAR": -0.0059592012, "MEAN_MOTION_DOT": -0.01439371, "MEAN_MOTION_DDOT": 0}, "tle": {"line1": "1 66950U 25286AB  25350.91670139 -.01439371  00000+0 -59592-2 0  9991", "line2": "2 66950  53.1561  29.3656 0000558  88.4249 274.5449 15.87990847  2660"}}, "geometry": {"type": "Point", "coordinates": [140.14172455865327, 50.813601042251165]}}, {"type": "Feature", "properties": {"norad_id": 66951, "name": "STARLINK-35999", "group": "last-30-days", "lat": 50.06521839291296, "lon": 143.44307916105825, "alt_km": 304.65619616670574, "timestamp": "2025-12-17T09:00:15.892885+00:00", "meta": {"OBJECT_NAME": "STARLINK-35999", "OBJECT_ID": "2025-286AC", "EPOCH": "2025-12-16T22:00:03.000096", "MEAN_MOTION": 15.88012101, "ECCENTRICITY": 6.412e-05, "INCLINATION": 53.1563, "RA_OF_ASC_NODE": 29.3609, "ARG_OF_PERICENTER": 90.7001, "MEAN_ANOMALY": 274.4658, "EPHEMERIS_TYPE": 0, "CLASSIFICATION_TYPE": "U", "NORAD_CAT_ID": 66951, "ELEMENT_SET_NO": 999, "REV_AT_EPOCH": 266, "BSTAR": -0.0059556464, "MEAN_MOTION_DOT": -0.01440024, "MEAN_MOTION_DDOT": 0}, "tle": {"line1": "1 66951U 25286AC  25350.91670139 -.01440024  00000+0 -59556-2 0  9999", "line2": "2 66951  53.1563  29.3609 0000641  90.7001 274.4658 15.88012101  2666"}}, "geometry": {"type": "Point", "coordinates": [143.44307916105825, 50.06521839291296]}}, {"type": "Feature", "properties": {"norad_id": 66952, "name": "STARLINK-36122", "group": "last-30-days", "lat": 51.42395576047492, "lon": 136.97856356341853, "alt_km": 304.63062717845787, "timestamp": "2025-12-17T09:00:15.892895+00:00", "meta": {"OBJECT_NAME": "STARLINK-36122", "OBJECT_ID": "2025-286AD", "EPOCH": "2025-12-16T22:00:03.000096", "MEAN_MOTION": 15.87960529, "ECCENTRICITY": 5.698e-05, "INCLINATION": 53.1562, "RA_OF_ASC_NODE": 29.3699, "ARG_OF_PERICENTER": 86.864, "MEAN_ANOMALY": 274.0708, "EPHEMERIS_TYPE": 0, "CLASSIFICATION_TYPE": "U", "NORAD_CAT_ID": 66952, "ELEMENT_SET_NO": 999, "REV_AT_EPOCH": 266, "BSTAR": -0.0059239921, "MEAN_MOTION_DOT": -0.01430115, "MEAN_MOTION_DDOT": 0}, "tle": {"line1": "1 66952U 25286AD  25350.91670139 -.01430115  00000+0 -59240-2 0  9990", "line2": "2 66952  53.1562  29.3699 0000569  86.8640 274.0708 15.87960529  2666"}}, "geometry": {"type": "Point", "coordinates": [136.97856356341853, 51.42395576047492]}}, {"type": "Feature", "properties": {"norad_id": 66953, "name": "HULIANWANG DIGUI-114", "group": "last-30-days", "lat": -22.020227031766805, "lon": -16.954644655065934, "alt_km": 1015.0533629089605, "timestamp": "2025-12-17T09:00:15.892911+00:00", "meta": {"OBJECT_NAME": "HULIANWANG DIGUI-114", "OBJECT_ID": "2025-287A", "EPOCH": "2025-12-15T20:15:59.937408", "MEAN_MOTION": 13.68689195, "ECCENTRICITY": 0.00087999, "INCLINATION": 86.496, "RA_OF_ASC_NODE": 345.0232, "ARG_OF_PERICENTER": 195.8466, "MEAN_ANOMALY": 164.2419, "EPHEMERIS_TYPE": 0, "CLASSIFICATION_TYPE": "U", "NORAD_CAT_ID": 66953, "ELEMENT_SET_NO": 999, "REV_AT_EPOCH": 95, "BSTAR": 2.5636052e-05, "MEAN_MOTION_DOT": 3.9e-07, "MEAN_MOTION_DDOT": 0}, "tle": {"line1": "1 66953U 25287A   25349.84444372  .00000039  00000+0  25636-4 0  9999", "line2": "2 66953  86.4960 345.0232 0008799 195.8466 164.2419 13.68689195   952"}}, "geometry": {"type": "Point", "coordinates": [-16.954644655065934, -22.020227031766805]}}, {"type": "Feature", "properties": {"norad_id": 66954, "name": "HULIANWANG DIGUI-115", "group": "last-30-days", "lat": -18.95431860756852, "lon": -16.736604843403207, "alt_km": 1014.697044607462, "timestamp": "2025-12-17T09:00:15.892921+00:00", "meta": {"OBJECT_NAME": "HULIANWANG DIGUI-115", "OBJECT_ID": "2025-287B", "EPOCH": "2025-12-16T06:46:51.247776", "MEAN_MOTION": 13.68792269, "ECCENTRICITY": 0.00088535, "INCLINATION": 86.4976, "RA_OF_ASC_NODE": 344.8667, "ARG_OF_PERICENTER": 193.3846, "MEAN_ANOMALY": 166.7079, "EPHEMERIS_TYPE": 0, "CLASSIFICATION_TYPE": "U", "NORAD_CAT_ID": 66954, "ELEMENT_SET_NO": 999, "REV_AT_EPOCH": 101, "BSTAR": 2.3546402e-05, "MEAN_MOTION_DOT": 3.7e-07, "MEAN_MOTION_DDOT": 0}, "tle": {"line1": "1 66954U 25287B   25350.28253759  .00000037  00000+0  23546-4 0  9993", "line2": "2 66954  86.4976 344.8667 0008853 193.3846 166.7079 13.68792269  1019"}}, "geometry": {"type": "Point", "coordinates": [-16.736604843403207, -18.95431860756852]}}, {"type": "Feature", "properties": {"norad_id": 66955, "name": "HULIANWANG DIGUI-116", "group": "last-30-days", "lat": -18.264420120234327, "lon": -16.702756786485267, "alt_km": 1016.3208012168734, "timestamp": "2025-12-17T09:00:15.892932+00:00", "meta": {"OBJECT_NAME": "HULIANWANG DIGUI-116", "OBJECT_ID": "2025-287C", "EPOCH": "2025-12-16T22:33:49.631328", "MEAN_MOTION": 13.68336064, "ECCENTRICITY": 0.00083854, "INCLINATION": 86.4911, "RA_OF_ASC_NODE": 344.6162, "ARG_OF_PERICENTER": 184.6101, "MEAN_ANOMALY": 175.4982, "EPHEMERIS_TYPE": 0, "CLASSIFICATION_TYPE": "U", "NORAD_CAT_ID": 66955, "ELEMENT_SET_NO": 999, "REV_AT_EPOCH": 110, "BSTAR": 0.00016607861, "MEAN_MOTION_DOT": 1.58e-06, "MEAN_MOTION_DDOT": 0}, "tle": {"line1": "1 66955U 25287C   25350.94015777  .00000158  00000+0  16608-3 0  9997", "line2": "2 66955  86.4911 344.6162 0008385 184.6101 175.4982 13.68336064  1101"}}, "geometry": {"type": "Point", "coordinates": [-16.702756786485267, -18.264420120234327]}}]}